[{"OBJECT_NAME":"STARLINK-36982","OBJECT_ID":"2026-055S","EPOCH":"2026-04-02T06:00:02.999808","MEAN_MOTION":15.84551871,"ECCENTRICITY":8.307e-5,"INCLINATION":53.1578,"RA_OF_ASC_NODE":219.0954,"ARG_OF_PERICENTER":81.0085,"MEAN_ANOMALY":131.3884,"EPHEMERIS_TYPE":0,"CLASSIFICATION_TYPE":"U","NORAD_CAT_ID":68278,"ELEMENT_SET_NO":999,"REV_AT_EPOCH":342,"BSTAR":-0.0069669816,"MEAN_MOTION_DOT":-0.01451187,"MEAN_MOTION_DDOT":0},{"OBJECT_NAME":"STARLINK-36934","OBJECT_ID":"2026-055T","EPOCH":"2026-04-02T06:00:02.999808","MEAN_MOTION":15.84545002,"ECCENTRICITY":0.00010581,"INCLINATION":53.1577,"RA_OF_ASC_NODE":219.1039,"ARG_OF_PERICENTER":84.5461,"MEAN_ANOMALY":123.5461,"EPHEMERIS_TYPE":0,"CLASSIFICATION_TYPE":"U","NORAD_CAT_ID":68279,"ELEMENT_SET_NO":999,"REV_AT_EPOCH":342,"BSTAR":-0.0068816771,"MEAN_MOTION_DOT":-0.01407069,"MEAN_MOTION_DDOT":0},{"OBJECT_NAME":"STARLINK-37070","OBJECT_ID":"2026-055U","EPOCH":"2026-04-02T06:00:02.999808","MEAN_MOTION":15.84501807,"ECCENTRICITY":7.885e-5,"INCLINATION":53.1581,"RA_OF_ASC_NODE":219.0764,"ARG_OF_PERICENTER":70.8104,"MEAN_ANOMALY":150.4557,"EPHEMERIS_TYPE":0,"CLASSIFICATION_TYPE":"U","NORAD_CAT_ID":68280,"ELEMENT_SET_NO":999,"REV_AT_EPOCH":342,"BSTAR":-0.0071076906,"MEAN_MOTION_DOT":-0.01473927,"MEAN_MOTION_DDOT":0},{"OBJECT_NAME":"STARLINK-37134","OBJECT_ID":"2026-055V","EPOCH":"2026-04-02T06:00:02.999808","MEAN_MOTION":15.84468714,"ECCENTRICITY":9.332e-5,"INCLINATION":53.1575,"RA_OF_ASC_NODE":219.0578,"ARG_OF_PERICENTER":86.0494,"MEAN_ANOMALY":144.0521,"EPHEMERIS_TYPE":0,"CLASSIFICATION_TYPE":"U","NORAD_CAT_ID":68281,"ELEMENT_SET_NO":999,"REV_AT_EPOCH":342,"BSTAR":-0.0072282451,"MEAN_MOTION_DOT":-0.01493987,"MEAN_MOTION_DDOT":0},{"OBJECT_NAME":"STARLINK-37160","OBJECT_ID":"2026-055W","EPOCH":"2026-04-02T06:00:02.999808","MEAN_MOTION":15.84466196,"ECCENTRICITY":8.639e-5,"INCLINATION":53.1578,"RA_OF_ASC_NODE":219.0678,"ARG_OF_PERICENTER":80.159,"MEAN_ANOMALY":145.5965,"EPHEMERIS_TYPE":0,"CLASSIFICATION_TYPE":"U","NORAD_CAT_ID":68282,"ELEMENT_SET_NO":999,"REV_AT_EPOCH":342,"BSTAR":-0.0071878347,"MEAN_MOTION_DOT":-0.01486398,"MEAN_MOTION_DDOT":0},{"OBJECT_NAME":"STARLINK-37124","OBJECT_ID":"2026-055X","EPOCH":"2026-04-02T06:00:02.999808","MEAN_MOTION":15.84504077,"ECCENTRICITY":7.524e-5,"INCLINATION":53.1577,"RA_OF_ASC_NODE":219.0497,"ARG_OF_PERICENTER":70.1432,"MEAN_ANOMALY":164.1374,"EPHEMERIS_TYPE":0,"CLASSIFICATION_TYPE":"U","NORAD_CAT_ID":68283,"ELEMENT_SET_NO":999,"REV_AT_EPOCH":342,"BSTAR":-0.0072239779,"MEAN_MOTION_DOT":-0.01495345,"MEAN_MOTION_DDOT":0},{"OBJECT_NAME":"STARLINK-37159","OBJECT_ID":"2026-055Y","EPOCH":"2026-04-02T06:00:02.999808","MEAN_MOTION":15.84487014,"ECCENTRICITY":7.457e-5,"INCLINATION":53.1577,"RA_OF_ASC_NODE":219.0404,"ARG_OF_PERICENTER":76.4991,"MEAN_ANOMALY":162.2477,"EPHEMERIS_TYPE":0,"CLASSIFICATION_TYPE":"U","NORAD_CAT_ID":68284,"ELEMENT_SET_NO":999,"REV_AT_EPOCH":342,"BSTAR":-0.007303452,"MEAN_MOTION_DOT":-0.01508745,"MEAN_MOTION_DDOT":0},{"OBJECT_NAME":"STARLINK-36725","OBJECT_ID":"2026-055Z","EPOCH":"2026-04-02T06:00:02.999808","MEAN_MOTION":15.84534918,"ECCENTRICITY":7.744e-5,"INCLINATION":53.1571,"RA_OF_ASC_NODE":219.0309,"ARG_OF_PERICENTER":85.0214,"MEAN_ANOMALY":157.8963,"EPHEMERIS_TYPE":0,"CLASSIFICATION_TYPE":"U","NORAD_CAT_ID":68285,"ELEMENT_SET_NO":999,"REV_AT_EPOCH":342,"BSTAR":-0.007310836,"MEAN_MOTION_DOT":-0.01513203,"MEAN_MOTION_DDOT":0},{"OBJECT_NAME":"STARLINK-36998","OBJECT_ID":"2026-055AA","EPOCH":"2026-04-02T06:00:02.999808","MEAN_MOTION":15.84541036,"ECCENTRICITY":7.39e-5,"INCLINATION":53.158,"RA_OF_ASC_NODE":219.0142,"ARG_OF_PERICENTER":74.4136,"MEAN_ANOMALY":177.4756,"EPHEMERIS_TYPE":0,"CLASSIFICATION_TYPE":"U","NORAD_CAT_ID":68286,"ELEMENT_SET_NO":999,"REV_AT_EPOCH":342,"BSTAR":-0.007982197,"MEAN_MOTION_DOT":-0.01634593,"MEAN_MOTION_DDOT":0},{"OBJECT_NAME":"STARLINK-37165","OBJECT_ID":"2026-055AB","EPOCH":"2026-04-02T06:00:02.999808","MEAN_MOTION":15.84550263,"ECCENTRICITY":8.965e-5,"INCLINATION":53.1576,"RA_OF_ASC_NODE":219.0034,"ARG_OF_PERICENTER":94.6476,"MEAN_ANOMALY":161.6374,"EPHEMERIS_TYPE":0,"CLASSIFICATION_TYPE":"U","NORAD_CAT_ID":68287,"ELEMENT_SET_NO":999,"REV_AT_EPOCH":342,"BSTAR":-0.0082877332,"MEAN_MOTION_DOT":-0.01689474,"MEAN_MOTION_DDOT":0},{"OBJECT_NAME":"STARLINK-37016","OBJECT_ID":"2026-055AC","EPOCH":"2026-04-02T06:00:02.999808","MEAN_MOTION":15.84550053,"ECCENTRICITY":7.193e-5,"INCLINATION":53.1573,"RA_OF_ASC_NODE":219.0224,"ARG_OF_PERICENTER":82.2133,"MEAN_ANOMALY":165.0965,"EPHEMERIS_TYPE":0,"CLASSIFICATION_TYPE":"U","NORAD_CAT_ID":68288,"ELEMENT_SET_NO":999,"REV_AT_EPOCH":342,"BSTAR":-0.0074999345,"MEAN_MOTION_DOT":-0.0154854,"MEAN_MOTION_DDOT":0},{"OBJECT_NAME":"STARLINK-37010","OBJECT_ID":"2026-055AD","EPOCH":"2026-04-02T06:00:02.999808","MEAN_MOTION":15.84571102,"ECCENTRICITY":7.749e-5,"INCLINATION":53.1578,"RA_OF_ASC_NODE":218.9942,"ARG_OF_PERICENTER":92.0184,"MEAN_ANOMALY":168.5007,"EPHEMERIS_TYPE":0,"CLASSIFICATION_TYPE":"U","NORAD_CAT_ID":68289,"ELEMENT_SET_NO":999,"REV_AT_EPOCH":342,"BSTAR":-0.008343885,"MEAN_MOTION_DOT":-0.01700727,"MEAN_MOTION_DDOT":0},{"OBJECT_NAME":"STARLINK-37151","OBJECT_ID":"2026-055AE","EPOCH":"2026-04-02T06:00:02.999808","MEAN_MOTION":15.84616458,"ECCENTRICITY":9.432e-5,"INCLINATION":53.1573,"RA_OF_ASC_NODE":218.9859,"ARG_OF_PERICENTER":75.6314,"MEAN_ANOMALY":188.9756,"EPHEMERIS_TYPE":0,"CLASSIFICATION_TYPE":"U","NORAD_CAT_ID":68290,"ELEMENT_SET_NO":999,"REV_AT_EPOCH":342,"BSTAR":-0.0082702946,"MEAN_MOTION_DOT":-0.01691136,"MEAN_MOTION_DDOT":0},{"OBJECT_NAME":"STRIX-6","OBJECT_ID":"2026-056A","EPOCH":"2026-04-02T02:39:18.152064","MEAN_MOTION":14.99657887,"ECCENTRICITY":0.00165329,"INCLINATION":50.2844,"RA_OF_ASC_NODE":349.2788,"ARG_OF_PERICENTER":312.4383,"MEAN_ANOMALY":47.5168,"EPHEMERIS_TYPE":0,"CLASSIFICATION_TYPE":"U","NORAD_CAT_ID":68291,"ELEMENT_SET_NO":999,"REV_AT_EPOCH":185,"BSTAR":0.00044520755,"MEAN_MOTION_DOT":5.305e-5,"MEAN_MOTION_DDOT":0},{"OBJECT_NAME":"ELECTRON KICK STAGE R/B","OBJECT_ID":"2026-056C","EPOCH":"2026-04-02T02:50:22.438464","MEAN_MOTION":15.40527738,"ECCENTRICITY":0.01545142,"INCLINATION":50.2916,"RA_OF_ASC_NODE":345.5777,"ARG_OF_PERICENTER":61.073,"MEAN_ANOMALY":300.5634,"EPHEMERIS_TYPE":0,"CLASSIFICATION_TYPE":"U","NORAD_CAT_ID":68293,"ELEMENT_SET_NO":999,"REV_AT_EPOCH":191,"BSTAR":0.0015164694,"MEAN_MOTION_DOT":0.00097099,"MEAN_MOTION_DDOT":0},{"OBJECT_NAME":"STARLINK-37107","OBJECT_ID":"2026-057A","EPOCH":"2026-04-02T06:00:02.999808","MEAN_MOTION":15.90868202,"ECCENTRICITY":0.00013074,"INCLINATION":97.2805,"RA_OF_ASC_NODE":215.729,"ARG_OF_PERICENTER":59.3201,"MEAN_ANOMALY":323.855,"EPHEMERIS_TYPE":0,"CLASSIFICATION_TYPE":"U","NORAD_CAT_ID":68294,"ELEMENT_SET_NO":999,"REV_AT_EPOCH":294,"BSTAR":-0.0042154737,"MEAN_MOTION_DOT":-0.01303368,"MEAN_MOTION_DDOT":0.00048634088},{"OBJECT_NAME":"STARLINK-37147","OBJECT_ID":"2026-057B","EPOCH":"2026-04-02T06:00:02.999808","MEAN_MOTION":15.90936195,"ECCENTRICITY":0.00014835,"INCLINATION":97.28,"RA_OF_ASC_NODE":215.73,"ARG_OF_PERICENTER":53.9263,"MEAN_ANOMALY":332.8713,"EPHEMERIS_TYPE":0,"CLASSIFICATION_TYPE":"U","NORAD_CAT_ID":68295,"ELEMENT_SET_NO":999,"REV_AT_EPOCH":293,"BSTAR":-0.0041869199,"MEAN_MOTION_DOT":-0.01299081,"MEAN_MOTION_DDOT":0.00048370974},{"OBJECT_NAME":"STARLINK-37142","OBJECT_ID":"2026-057C","EPOCH":"2026-04-02T06:00:02.999808","MEAN_MOTION":15.91135308,"ECCENTRICITY":0.00014947,"INCLINATION":97.2794,"RA_OF_ASC_NODE":215.7349,"ARG_OF_PERICENTER":56.1277,"MEAN_ANOMALY":342.5317,"EPHEMERIS_TYPE":0,"CLASSIFICATION_TYPE":"U","NORAD_CAT_ID":68296,"ELEMENT_SET_NO":999,"REV_AT_EPOCH":282,"BSTAR":-0.0041906389,"MEAN_MOTION_DOT":-0.01313316,"MEAN_MOTION_DDOT":0.0004945359},{"OBJECT_NAME":"STARLINK-37115","OBJECT_ID":"2026-057D","EPOCH":"2026-04-02T06:00:02.999808","MEAN_MOTION":15.91056031,"ECCENTRICITY":0.00013969,"INCLINATION":97.2792,"RA_OF_ASC_NODE":215.7322,"ARG_OF_PERICENTER":55.8567,"MEAN_ANOMALY":339.0754,"EPHEMERIS_TYPE":0,"CLASSIFICATION_TYPE":"U","NORAD_CAT_ID":68297,"ELEMENT_SET_NO":999,"REV_AT_EPOCH":282,"BSTAR":-0.0041772726,"MEAN_MOTION_DOT":-0.01303935,"MEAN_MOTION_DDOT":0.0004876361},{"OBJECT_NAME":"STARLINK-36355","OBJECT_ID":"2026-057E","EPOCH":"2026-04-02T06:00:02.999808","MEAN_MOTION":15.91008829,"ECCENTRICITY":0.00013219,"INCLINATION":97.2796,"RA_OF_ASC_NODE":215.7311,"ARG_OF_PERICENTER":60.6209,"MEAN_ANOMALY":329.941,"EPHEMERIS_TYPE":0,"CLASSIFICATION_TYPE":"U","NORAD_CAT_ID":68298,"ELEMENT_SET_NO":999,"REV_AT_EPOCH":309,"BSTAR":-0.0041900516,"MEAN_MOTION_DOT":-0.01304772,"MEAN_MOTION_DDOT":0.00048798703},{"OBJECT_NAME":"STARLINK-37118","OBJECT_ID":"2026-057F","EPOCH":"2026-04-02T06:00:02.999808","MEAN_MOTION":15.91274869,"ECCENTRICITY":0.00014219,"INCLINATION":97.2786,"RA_OF_ASC_NODE":215.7378,"ARG_OF_PERICENTER":54.7438,"MEAN_ANOMALY":352.1137,"EPHEMERIS_TYPE":0,"CLASSIFICATION_TYPE":"U","NORAD_CAT_ID":68299,"ELEMENT_SET_NO":999,"REV_AT_EPOCH":293,"BSTAR":-0.0042875934,"MEAN_MOTION_DOT":-0.01352872,"MEAN_MOTION_DDOT":0.00052317288},{"OBJECT_NAME":"STARLINK-36875","OBJECT_ID":"2026-057G","EPOCH":"2026-04-02T06:00:02.999808","MEAN_MOTION":15.91186646,"ECCENTRICITY":0.00014269,"INCLINATION":97.279,"RA_OF_ASC_NODE":215.7362,"ARG_OF_PERICENTER":52.3868,"MEAN_ANOMALY":350.7741,"EPHEMERIS_TYPE":0,"CLASSIFICATION_TYPE":"U","NORAD_CAT_ID":68300,"ELEMENT_SET_NO":999,"REV_AT_EPOCH":300,"BSTAR":-0.0042262988,"MEAN_MOTION_DOT":-0.01327801,"MEAN_MOTION_DDOT":0.00050493418},{"OBJECT_NAME":"STARLINK-37099","OBJECT_ID":"2026-057H","EPOCH":"2026-04-02T06:00:02.999808","MEAN_MOTION":15.91339002,"ECCENTRICITY":0.00014443,"INCLINATION":97.2783,"RA_OF_ASC_NODE":215.74,"ARG_OF_PERICENTER":55.4519,"MEAN_ANOMALY":356.1093,"EPHEMERIS_TYPE":0,"CLASSIFICATION_TYPE":"U","NORAD_CAT_ID":68301,"ELEMENT_SET_NO":999,"REV_AT_EPOCH":282,"BSTAR":-0.004513402,"MEAN_MOTION_DOT":-0.01428,"MEAN_MOTION_DDOT":0.0005785665}]
